{
    "links": {
        "self": "http://www.neowsapp.com/rest/v1/neo/3592118?api_key=iIulBulltgU6a56xZRHN4H3l9WmuAYTsLGpBGhQ2"
    },
    "id": "3592118",
    "neo_reference_id": "3592118",
    "name": "(2012 AA3)",
    "designation": "2012 AA3",
    "nasa_jpl_url": "http://ssd.jpl.nasa.gov/sbdb.cgi?sstr=3592118",
    "absolute_magnitude_h": 22.4,
    "estimated_diameter": {
        "kilometers": {
            "estimated_diameter_min": 0.0880146521,
            "estimated_diameter_max": 0.1968067451
        },
        "meters": {
            "estimated_diameter_min": 88.0146520901,
            "estimated_diameter_max": 196.8067450894
        },
        "miles": {
            "estimated_diameter_min": 0.0546897524,
            "estimated_diameter_max": 0.122290004
        },
        "feet": {
            "estimated_diameter_min": 288.7619911632,
            "estimated_diameter_max": 645.6914415591
        }
    },
    "is_potentially_hazardous_asteroid": false,
    "close_approach_data": [
        {
            "close_approach_date": "2011-12-14",
            "close_approach_date_full": "2011-Dec-14 19:07",
            "epoch_date_close_approach": 1323889620000,
            "relative_velocity": {
                "kilometers_per_second": "5.8417739557",
                "kilometers_per_hour": "21030.3862405057",
                "miles_per_hour": "13067.4641614964"
            },
            "miss_distance": {
                "astronomical": "0.2220017053",
                "lunar": "86.3586633617",
                "kilometers": "33210982.249247711",
                "miles": "20636347.4495359718"
            },
            "orbiting_body": "Earth"
        },
        {
            "close_approach_date": "2019-12-09",
            "close_approach_date_full": "2019-Dec-09 23:57",
            "epoch_date_close_approach": 1575935820000,
            "relative_velocity": {
                "kilometers_per_second": "7.4667409831",
                "kilometers_per_hour": "26880.2675391015",
                "miles_per_hour": "16702.3529050601"
            },
            "miss_distance": {
                "astronomical": "0.2789293848",
                "lunar": "108.5035306872",
                "kilometers": "41727241.846490376",
                "miles": "25928105.7811681488"
            },
            "orbiting_body": "Earth"
        }
    ],
    "orbital_data": {
        "orbit_id": "9",
        "orbit_determination_date": "2020-06-29 05:59:44",
        "first_observation_date": "2012-01-02",
        "last_observation_date": "2012-01-25",
        "data_arc_in_days": 23,
        "observations_used": 25,
        "orbit_uncertainty": "7",
        "minimum_orbit_intersection": ".172724",
        "jupiter_tisserand_invariant": "3.794",
        "epoch_osculation": "2459000.5",
        "eccentricity": ".402981160925254",
        "semi_major_axis": "1.931397929422614",
        "inclination": "9.442574025904188",
        "ascending_node_longitude": "270.1980815972631",
        "orbital_period": "980.4062452867972",
        "perihelion_distance": "1.153080949615257",
        "perihelion_argument": "165.2243542495149",
        "aphelion_distance": "2.70971490922997",
        "perihelion_time": "2458837.596461010693",
        "mean_anomaly": "59.81731993046925",
        "mean_motion": ".3671947233411285",
        "equinox": "J2000",
        "orbit_class": {
            "orbit_class_type": "AMO",
            "orbit_class_description": "Near-Earth asteroid orbits similar to that of 1221 Amor",
            "orbit_class_range": "1.017 AU < q (perihelion) < 1.3 AU"
        }
    },
    "is_sentry_object": false
}